#aV2009  3  4  0  0   .00000000      96 DD+AD WGS84 FIT  NGA
## 1521 259200.00000000   900.00000000 54894  .0000000000000
+   31     2  3  4  5  6  7  8  9 10 11 12 13 14 15 16 17 18
+         19 20 21 22 23 24 25 26 27 28 29 30 31 32  0  0  0
+          0  0  0  0  0  0  0  0  0  0  0  0  0  0  0  0  0
+          0  0  0  0  0  0  0  0  0  0  0  0  0  0  0  0  0
+          0  0  0  0  0  0  0  0  0  0  0  0  0  0  0  0  0
++         0  0  0  0  0  0  0  0  0  0  0  0  0  0  0  0  0
++         0  0  0  0  0  0  0  0  0  0  0  0  0  0  0  0  0
++         0  0  0  0  0  0  0  0  0  0  0  0  0  0  0  0  0
++         0  0  0  0  0  0  0  0  0  0  0  0  0  0  0  0  0
++         0  0  0  0  0  0  0  0  0  0  0  0  0  0  0  0  0
%c cc cc ccc ccc cccc cccc cccc cccc ccccc ccccc ccccc ccccc
%c cc cc ccc ccc cccc cccc cccc cccc ccccc ccccc ccccc ccccc
%f  0.0000000  0.000000000  0.00000000000  0.000000000000000
%f  0.0000000  0.000000000  0.00000000000  0.000000000000000
%i    0    0    0    0      0      0      0      0         0
%i    0    0    0    0      0      0      0      0         0
/*      NGA, ST. LOUIS,MO.                                  
/*   EPHEMERIS COMPUTED FROM  3 DAYS OF DATA                
/* CCCCCCCCCCCCCCCCCCCCCCCCCCCCCCCCCCCCCCCCCCCCCCCCCCCCCCCCC
/* CCCCCCCCCCCCCCCCCCCCCCCCCCCCCCCCCCCCCCCCCCCCCCCCCCCCCCCCC
*  2009  3  4  6  0   .00000000                                                 
P  2 -23008.589367  12800.854182   -861.561867    155.717132                    
V  2  -1074.219017  -3744.634226 -31558.637680      -.009662                    
P  3  11337.229226 -16156.158394  17308.808246    360.806894                    
V  3   4929.876164  22420.049551  17750.238307       .051985                    
P  4 -23547.892888   2850.121943 -12447.950643       .633872                    
V  4  12276.717266  -9801.985012 -25372.027491      -.142924                    
P  5   6141.919828  17925.028464 -18957.079510     -3.446981                    
V  5 -21920.339570  -8501.938840 -15260.821729      -.041000                    
P  6  14037.122616 -11466.610527  19593.527235     14.326955                    
V  6   2462.763719  24501.019448  12733.278944       .197852                    
P  7  -8053.183288 -12775.174849  21834.251204     22.097757                    
V  7  24079.738547 -13781.341090    711.153518      -.004049                    
P  8 -19772.260530  -3190.808397  17642.198974   -193.042991                    
V  8  19525.248648 -10724.053951  19402.586574      -.015186                    
P  9  -8818.381780  18965.036908 -16952.788023     43.538820                    
V  9 -18023.718699   9483.714737  20888.790235       .020325                    
P 10 -14712.781211   7876.889197  20580.340225    -12.095957                    
V 10 -22077.830571 -14521.932540  -9814.682724      -.005795                    
P 11   4972.985984 -21080.955784 -15350.997431      5.746314                    
V 11  16939.056334 -10351.768389  20319.488297      -.012127                    
P 12   2737.906520  17475.196314 -19772.490623   -310.054456                    
V 12 -22277.249476 -11876.066495 -13420.766994       .040759                    
P 13  -5766.882670 -23414.716172  11026.349606    290.435261                    
V 13   2347.361770 -14020.653468 -28221.914932       .012291                    
P 14  13942.300814   6404.428740 -21575.094016   -146.006222                    
V 14  -1508.826360  27547.056888   7058.359582       .054792                    
P 15  -7262.295231  23222.289192  10610.606742   -264.379279                    
V 15  -2724.058733 -13434.712501  27663.624536      -.049885                    
P 16  19562.456609  -2526.255672  17959.607995     70.303952                    
V 16  18547.652417  12937.307543 -18220.967075      -.029146                    
P 17 -14212.896020  -8944.108648 -20563.093684     48.946541                    
V 17   1381.026329 -26174.901016  10216.101352       .013141                    
P 18  19716.337965  17232.881975   5708.352988    -78.027047                    
V 18  -7414.171060  -1206.889357  30020.452220       .035131                    
P 19   7539.241319 -24044.773629   8063.005063     31.351329                    
V 19   2094.430794  10414.174846  29562.724560      -.007485                    
P 20  -5387.409279 -18375.657349 -18552.475182     89.160044                    
V 20  21224.439763   9846.962172 -15979.021678      -.010760                    
P 21  13129.491470  10452.140285  20924.394928     26.224977                    
V 21 -22591.530959  12941.969858   7172.309086      -.018885                    
P 22  23733.887137  10934.958594  -4778.994097    204.186285                    
V 22   3508.190260   6166.715705  30484.624317      -.006722                    
P 23   -281.027645 -26396.602586    782.031855    387.873668                    
V 23   2739.293264  -1031.987867 -32139.156079       .005244                    
P 24  -3021.138463  17497.215295  19964.133830    170.205917                    
V 24 -22802.167528  10340.429778 -12334.601326       .030603                    
P 25  -1145.419435 -16804.054490  20938.549946    278.822500                    
V 25  21403.319523 -14257.291942 -10258.925677       .237384                    
P 26 -10173.977831  19579.838933  13864.343151     48.674260                    
V 26   -818.811536 -18738.116034  25436.506603       .026411                    
P 27 -23848.831639  10244.433591   6534.101478     29.392286                    
V 27   5013.462325  -5831.281297  30550.487086       .031457                    
P 28 -23351.191085 -12747.864353  -2233.258003    -23.607041                    
V 28  -1546.203230  -3798.576626  31488.963224      -.000292                    
P 29   6124.737918  24003.347859   9735.912769     -4.743501                    
V 29  -2837.011174  12125.430369 -28379.941288       .036982                    
P 30  14483.586449  18273.577737 -13156.517670    130.085857                    
V 30 -15337.243742  -5467.428348 -25088.123687       .024745                    
P 31  23799.034651  -5507.735307 -10375.633325    -53.562441                    
V 31 -10578.804005   8548.070497 -28090.037229      -.013211                    
P 32   3520.074830 -15336.590440 -21029.247094    290.006963                    
V 32  22879.590660  15440.835617  -7058.562383      -.037744                    
EOF
